[{"OBJECT_NAME":"NIGHTJAR","OBJECT_ID":"2024-149BV","EPOCH":"2026-03-09T15:29:33.054144","MEAN_MOTION":14.9839881,"ECCENTRICITY":0.00023928,"INCLINATION":97.6919,"RA_OF_ASC_NODE":146.7603,"ARG_OF_PERICENTER":83.3363,"MEAN_ANOMALY":276.8132,"EPHEMERIS_TYPE":0,"CLASSIFICATION_TYPE":"U","NORAD_CAT_ID":60535,"ELEMENT_SET_NO":999,"REV_AT_EPOCH":12796,"BSTAR":0.00036343971,"MEAN_MOTION_DOT":4.278e-5,"MEAN_MOTION_DDOT":0},{"OBJECT_NAME":"STARLINK-34406","OBJECT_ID":"2025-142K","EPOCH":"2026-03-09T22:08:51.692928","MEAN_MOTION":14.98332656,"ECCENTRICITY":0.00028588,"INCLINATION":70.0016,"RA_OF_ASC_NODE":313.9528,"ARG_OF_PERICENTER":253.2136,"MEAN_ANOMALY":106.871,"EPHEMERIS_TYPE":0,"CLASSIFICATION_TYPE":"U","NORAD_CAT_ID":64705,"ELEMENT_SET_NO":999,"REV_AT_EPOCH":3963,"BSTAR":0.00047036682,"MEAN_MOTION_DOT":5.524e-5,"MEAN_MOTION_DDOT":0}]
